[{"OBJECT_NAME":"STARLINK-4652","OBJECT_ID":"2022-107AN","EPOCH":"2026-03-09T16:59:14.743392","MEAN_MOTION":15.08835632,"ECCENTRICITY":0.0001273,"INCLINATION":53.2171,"RA_OF_ASC_NODE":254.2298,"ARG_OF_PERICENTER":84.7459,"MEAN_ANOMALY":275.3679,"EPHEMERIS_TYPE":0,"CLASSIFICATION_TYPE":"U","NORAD_CAT_ID":53736,"ELEMENT_SET_NO":999,"REV_AT_EPOCH":19458,"BSTAR":8.1119435e-5,"MEAN_MOTION_DOT":1.003e-5,"MEAN_MOTION_DDOT":0},{"OBJECT_NAME":"LEMUR-2-KREMPEL-BRO1","OBJECT_ID":"2025-061G","EPOCH":"2026-03-09T22:19:45.751296","MEAN_MOTION":15.13773226,"ECCENTRICITY":0.0017497,"INCLINATION":97.5535,"RA_OF_ASC_NODE":45.5283,"ARG_OF_PERICENTER":227.946,"MEAN_ANOMALY":132.0284,"EPHEMERIS_TYPE":0,"CLASSIFICATION_TYPE":"U","NORAD_CAT_ID":63357,"ELEMENT_SET_NO":999,"REV_AT_EPOCH":5261,"BSTAR":0.00031891713,"MEAN_MOTION_DOT":5.707e-5,"MEAN_MOTION_DDOT":0}]
